[{"OBJECT_NAME":"JILIN-1 GAOFEN 03D47","OBJECT_ID":"2022-167L","EPOCH":"2026-03-09T22:56:46.924224","MEAN_MOTION":15.31686941,"ECCENTRICITY":0.00089304,"INCLINATION":97.6835,"RA_OF_ASC_NODE":234.6581,"ARG_OF_PERICENTER":110.4031,"MEAN_ANOMALY":249.8169,"EPHEMERIS_TYPE":0,"CLASSIFICATION_TYPE":"U","NORAD_CAT_ID":54692,"ELEMENT_SET_NO":999,"REV_AT_EPOCH":18014,"BSTAR":0.00047294748,"MEAN_MOTION_DOT":0.00014417,"MEAN_MOTION_DDOT":0},{"OBJECT_NAME":"STARLINK-34285","OBJECT_ID":"2025-167Z","EPOCH":"2026-03-09T23:12:39.118752","MEAN_MOTION":15.30267921,"ECCENTRICITY":9.778e-5,"INCLINATION":53.1595,"RA_OF_ASC_NODE":25.2755,"ARG_OF_PERICENTER":89.242,"MEAN_ANOMALY":270.8693,"EPHEMERIS_TYPE":0,"CLASSIFICATION_TYPE":"U","NORAD_CAT_ID":65101,"ELEMENT_SET_NO":999,"REV_AT_EPOCH":3352,"BSTAR":0.0016275255,"MEAN_MOTION_DOT":0.00048259,"MEAN_MOTION_DDOT":0}]
